STARLINK-1878           
1 47163U 20088AT  21069.58334491  .00000257  00000-0  36166-4 0  9994
2 47163  53.0544 224.8423 0001578 121.5882 220.0369 15.06394619 16864
STARLINK-1879           
1 47164U 20088AU  21068.91668981 -.00476926  00000-0 -13307-1 0  9996
2 47164  53.0501 201.3943 0001224  82.3121 218.3291 15.38138936  1819
STARLINK-1880           
1 47165U 20088AV  21068.91668981 -.00002576  00000-0 -15407-3 0  9998
2 47165  53.0528 217.8248 0001779  97.9171 196.3619 15.06404719  1809
STARLINK-1881           
1 47166U 20088AW  21069.58334491 -.00119520  00000-0 -47547-2 0  9996
2 47166  53.0443 212.2906 0001455  97.8684  54.4927 15.25252687 17039
STARLINK-1884           
1 47167U 20088AX  21069.58334491 -.00034276  00000-0 -22905-2 0  9992
2 47167  53.0546 214.8367 0008606   3.4625  28.0478 15.06409229 17051
STARLINK-1885           
1 47168U 20088AY  21069.25002315  .00040243  00000-0  27065-2 0  9995
2 47168  53.0537 216.3277 0001827 100.6488 302.2889 15.06381471 17000
STARLINK-1886           
1 47169U 20088AZ  21069.25002315 -.00933714  00000-0 -38033-1 0  9998
2 47169  53.0557 201.9681 0001461  63.7322  91.3214 15.26556601 17203
STARLINK-1887           
1 47170U 20088BA  21069.25002315  .00036681  00000-0  24712-2 0  9995
2 47170  53.0539 216.3211 0001760 115.6618 347.2381 15.06361121 16993
STARLINK-1888           
1 47171U 20088BB  21068.91668981  .00004480  00000-0  31960-3 0  9991
2 47171  53.0528 207.8195 0001325  74.2334 274.9909 15.06386833  1803
STARLINK-1889           
1 47172U 20088BC  21069.58334491 -.00031742  00000-0 -22658-2 0  9998
2 47172  53.0589 219.6266 0001981 114.4946   0.6695 15.03957350 16981
STARLINK-1890           
1 47173U 20088BD  21069.25002315  .00040770  00000-0  27432-2 0  9994
2 47173  53.0541 216.3295 0001862 118.3115 269.7618 15.06358679 16991
STARLINK-1891           
1 47174U 20088BE  21069.25002315  .00040376  00000-0  27161-2 0  9996
2 47174  53.0539 216.3321 0001605 111.9265 230.9482 15.06370944 16997
STARLINK-1895           
1 47175U 20088BF  21068.91668981 -.00477151  00000-0 -13268-1 0  9995
2 47175  53.0491 201.3900 0001207  82.6752 225.9703 15.38243902  1818
STARLINK-1900           
1 47176U 20088BG  21069.25002315  .00976441  00000-0  55993-2 0  9993
2 47176  53.0504 197.3228 0001269  54.8525 152.2336 15.75933014 17742
STARLINK-1907           
1 47177U 20088BH  21068.91668981  .00008840  00000-0  61158-3 0  9993
2 47177  53.0584 207.8267 0001368  66.6141   2.6396 15.06401657  1807
STARLINK-1912           
1 47178U 20088BJ  21069.58334491 -.00028340  00000-0 -18904-2 0  9993
2 47178  53.0461 214.8618 0001965 101.5667  89.8962 15.06414510 16742
STARLINK-1913           
1 47179U 20088BK  21069.25002315 -.00000016  00000-0  17817-4 0  9998
2 47179  53.0544 226.3402 0001630 125.1448 122.7435 15.06394718 16819
STARLINK-1914           
1 47180U 20088BL  21069.58334491 -.00029754  00000-0 -19865-2 0  9993
2 47180  53.0551 224.8444 0002668 118.1193 158.3941 15.06405272 16869
STARLINK-1927           
1 47181U 20088BM  21068.91668981 -.00477140  00000-0 -13168-1 0  9999
2 47181  53.0490 201.4287 0001211  83.8278 238.5245 15.38473955  1818
LUCAS (JDRS-1)          
1 47202U 20089A   21069.09308016 -.00000259  00000-0  00000+0 0  9995
2 47202   0.0187 121.2946 0002165 240.4722 290.5016  1.00271520  1094
FALCON EYE 2            
1 47226U 20090A   21069.57375250  .00000071  00000-0  14613-4 0  9991
2 47226  97.8528 145.9752 0001671  90.9384 269.2032 14.84923000 14621
GONETS-M 20             
1 47227U 20091A   21069.47296239  .00000024  00000-0  10000-3 0  9994
2 47227  82.5007  58.7640 0021847  63.0444 297.2864 12.42883280 12109
GONETS-M 21             
1 47228U 20091B   21069.44699924  .00000024  00000-0  10000-3 0  9990
2 47228  82.4940  58.6803 0015922  75.1407 285.1436 12.42860748 12098
GONETS-M 22             
1 47229U 20091C   21069.25931897  .00020027  00000-0  14407+0 0  9994
2 47229  82.4993  58.7989 0023572  58.1273 302.0396 12.42932970 12063
COSMOS 2548             
1 47230U 20091D   21069.51168968  .00000007  00000-0 -18859-4 0  9993
2 47230  82.4974  58.6476 0016654  73.8803 286.4109 12.42951004 12101
GAOFEN 14               
1 47231U 20092A   21069.54639813  .00001056  00000-0  44472-4 0  9994
2 47231  97.4283 146.7696 0008836 294.7736 177.8725 15.25545345 14386
GECAM-A                 
1 47234U 20094A   21069.55063656  .00000408  00000-0  26878-4 0  9996
2 47234  28.9972 160.3136 0012760 143.9318 216.2126 14.90691552 13505
GECAM-B                 
1 47235U 20094B   21069.41046844  .00000450  00000-0  30931-4 0  9994
2 47235  28.9977 161.1112 0013046 141.0689 219.0857 14.90796297 13483
SXM-7                   
1 47240U 20096A   21069.51210666 -.00000013  00000-0  00000+0 0  9993
2 47240   0.0337  84.3790 0003861 343.4560 164.3893  1.00271386  1032
IPM 2 & BREEZE-M R/B    
1 47242U 20097A   21069.19219130 -.00000095  00000-0  00000+0 0  9995
2 47242   0.2021 120.7308 0088349 201.6905 186.1197  0.95296572   910
STRIX-ALPHA             
1 47253U 20098A   21069.49209300  .00002285  00000-0  10591-3 0  9991
2 47253  97.3700 325.2786 0014442   7.6565 165.5299 15.21000811 12926
CMS-01                  
1 47256U 20099A   21069.53730096 -.00000188  00000-0  00000+0 0  9992
2 47256   0.0143 255.2787 0006857  33.4649 156.1081  1.00270990   892
ONEWEB-0102             
1 47258U 20100A   21069.58334491 -.01023202  00000-0 -93239+0 0  9991
2 47258  87.7002  13.9765 0009943  11.9187 121.3008 13.86661364 12131
ONEWEB-0109             
1 47259U 20100B   21069.58334491  .00000015  00000-0  00000+0 0  9990
2 47259  87.6081  13.7792 0009979  13.8151 248.3285 13.68905237 12011
ONEWEB-0110             
1 47260U 20100C   21069.25002315 -.00817568  00000-0 -67393+0 0  9992
2 47260  87.6712  14.0049 0009734  13.6376 320.3330 13.92279679 12078
ONEWEB-0111             
1 47261U 20100D   21069.58334491  .00000015  00000-0  00000+0 0  9993
2 47261  87.6761  13.6711 0010846  12.0392 312.7348 13.72613169 12002
ONEWEB-0114             
1 47262U 20100E   21069.58334491  .00000015  00000-0  00000+0 0  9994
2 47262  87.6591  13.6363 0010242 357.6677  15.6279 13.68883846 11985
ONEWEB-0117             
1 47263U 20100F   21069.58334491  .00000015  00000-0  00000+0 0  9995
2 47263  87.6277  13.6951 0011193  17.2386  64.1326 13.62555535 11990
ONEWEB-0118             
1 47264U 20100G   21069.58334491  .00000016  00000-0  00000+0 0  9997
2 47264  87.6650  14.0024 0012099   0.5358   9.8679 13.86989511 12148
ONEWEB-0119             
1 47265U 20100H   21069.58334491 -.01014048  00000-0 -94441+0 0  9993
2 47265  87.6814  13.9337 0013727   2.2240 209.6134 13.85333675 12110
ONEWEB-0120             
1 47266U 20100J   21069.58334491  .00000016  00000-0  00000+0 0  9999
2 47266  87.6498  13.9549 0010658  14.5149 312.3101 13.85498421 12126
ONEWEB-0121             
1 47267U 20100K   21069.58334491 -.00950307  00000-0 -89915+0 0  9991
2 47267  87.6159  13.6923 0013379  14.3198 267.1283 13.84196856 12022
ONEWEB-0122             
1 47268U 20100L   21069.58334491 -.00803420  00000-0 -89475+0 0  9996
2 47268  87.6904  13.6662 0009459  10.4672 161.0841 13.74491085 11986
ONEWEB-0123             
1 47269U 20100M   21069.58334491 -.00749881  00000-0 -71400+0 0  9996
2 47269  87.6764  13.9103 0008991   7.2893 358.9502 13.83623713 12104
ONEWEB-0124             
1 47270U 20100N   21069.58334491  .00000015  00000-0  00000+0 0  9993
2 47270  87.5900  13.7940 0010254 359.3146  68.2420 13.67262305 12019
ONEWEB-0125             
1 47271U 20100P   21069.58334491  .00000016  00000-0  00000+0 0  9995
2 47271  87.6654  13.8237 0009853   1.9382 158.8066 13.76956170 12047
ONEWEB-0126             
1 47272U 20100Q   21069.58334491 -.01028129  00000-0 -95189+0 0  9996
2 47272  87.6897  13.9860 0009150 356.0933 154.0860 13.85750281 12108
ONEWEB-0127             
1 47273U 20100R   21069.58334491  .00000016  00000-0  00000+0 0  9997
2 47273  87.6464  13.9809 0011541   5.1689 281.0073 13.84251641 12145
ONEWEB-0128             
1 47274U 20100S   21069.58334491  .00000016  00000-0  00000+0 0  9998
2 47274  87.6604  14.0079 0011208 338.3919 196.3021 13.87225292 12158
ONEWEB-0129             
1 47275U 20100T   21069.58334491 -.01014794  00000-0 -94321+0 0  9999
2 47275  87.6582  13.8760 0012718  13.3444 356.9065 13.85460048 12068
ONEWEB-0130             
1 47276U 20100U   21069.58334491  .00000016  00000-0  00000+0 0  9990
2 47276  87.6260  13.9509 0009000   0.0421 154.6752 13.79922466 12080
ONEWEB-0131             
1 47277U 20100V   21069.58334491  .00000016  00000-0  00000+0 0  9991
2 47277  87.6490  13.9218 0007952   4.1795 343.7862 13.83315869 12100
ONEWEB-0132             
1 47278U 20100W   21069.58334491  .00000015  00000-0  00000+0 0  9991
2 47278  87.6722  13.7804 0009878  15.6559 264.8062 13.74499251 12026
ONEWEB-0133             
1 47279U 20100X   21069.58334491  .00000016  00000-0  00000+0 0  9993
2 47279  87.6706  14.0227 0012394 357.7372 315.8811 13.88455806 12136
ONEWEB-0134             
1 47280U 20100Y   21069.58334491  .00000016  00000-0  00000+0 0  9995
2 47280  87.6365  13.9701 0012815   9.9821 238.7392 13.83640610 12127
ONEWEB-0135             
1 47281U 20100Z   21069.25002315 -.01076529  00000-0 -89370+0 0  9999
2 47281  87.6978  14.0735 0012417 344.1306 102.7379 13.92236303 12098
ONEWEB-0136             
1 47282U 20100AA  21069.58334491  .00000016  00000-0  00000+0 0  9997
2 47282  87.6123  13.9215 0008714   4.8269 279.6476 13.78897004 12081
ONEWEB-0137             
1 47283U 20100AB  21069.58334491  .00000015  00000-0  00000+0 0  9997
2 47283  87.6774  13.7951 0011597 357.8978 259.4210 13.70670079 12018
ONEWEB-0138             
1 47284U 20100AC  21069.25002315 -.00628136  00000-0 -56158+0 0  9996
2 47284  87.7024  13.7879 0012454  10.8830 313.9184 13.87254673 11980
